[{"OBJECT_NAME":"SHIJIAN-15 (SJ-15)","OBJECT_ID":"2013-037C","EPOCH":"2026-03-09T22:45:08.192736","MEAN_MOTION":14.71357626,"ECCENTRICITY":0.0007545,"INCLINATION":98.1055,"RA_OF_ASC_NODE":72.3692,"ARG_OF_PERICENTER":101.5082,"MEAN_ANOMALY":258.6973,"EPHEMERIS_TYPE":0,"CLASSIFICATION_TYPE":"U","NORAD_CAT_ID":39210,"ELEMENT_SET_NO":999,"REV_AT_EPOCH":67973,"BSTAR":0.00018012312,"MEAN_MOTION_DOT":1.064e-5,"MEAN_MOTION_DDOT":0},{"OBJECT_NAME":"CZ-6A DEB","OBJECT_ID":"2024-140HV","EPOCH":"2026-03-09T13:53:09.132288","MEAN_MOTION":14.808573,"ECCENTRICITY":0.0152423,"INCLINATION":88.8878,"RA_OF_ASC_NODE":271.6068,"ARG_OF_PERICENTER":149.3328,"MEAN_ANOMALY":211.6917,"EPHEMERIS_TYPE":0,"CLASSIFICATION_TYPE":"U","NORAD_CAT_ID":60842,"ELEMENT_SET_NO":999,"REV_AT_EPOCH":8460,"BSTAR":0.00072437,"MEAN_MOTION_DOT":6.859e-5,"MEAN_MOTION_DDOT":0}]
